start=new Date('2021-10-05T00:00:00.000Z').valueOf();
sats=[{"TLE_LINE1":"1 44728U 19074R   21277.57449710  .00014787  00000-0  11786-3 0  9995","INCLINATION":"53.0552","OBJECT_ID":"2019-074R","EPHEMERIS_TYPE":"0","SITE":"AFETR","ELEMENT_SET_NO":"999","CENTER_NAME":"EARTH","DECAY_DATE":null,"OBJECT_NAME":"STARLINK-1023","MEAN_ANOMALY":"319.5483","EPOCH":"2021-10-04T13:47:16.549440","COUNTRY_CODE":"US","BSTAR":"0.00011786000000","FILE":"3144407","MEAN_MOTION_DDOT":"0.0000000000000","OBJECT_TYPE":"PAYLOAD","REF_FRAME":"TEME","RA_OF_ASC_NODE":"224.7219","CLASSIFICATION_TYPE":"U","ARG_OF_PERICENTER":"40.5651","MEAN_MOTION":"15.71460371","TLE_LINE2":"2 44728  53.0552 224.7219 0001574  40.5651 319.5483 15.71460371105310","PERIOD":"91.635","NORAD_CAT_ID":"44728","MEAN_MOTION_DOT":"0.00014787","GP_ID":"186191536","REV_AT_EPOCH":"10531","MEAN_ELEMENT_THEORY":"SGP4","ECCENTRICITY":"0.00015740","LAUNCH_DATE":"2019-11-11","PERIAPSIS":"353.665","APOAPSIS":"355.784","TIME_SYSTEM":"UTC","SEMIMAJOR_AXIS":"6732.860","RCS_SIZE":"LARGE"},{"TLE_LINE1":"1 44729U 19074S   21277.66281694  .00003861  00000-0  26853-3 0  9993","INCLINATION":"52.9999","OBJECT_ID":"2019-074S","EPHEMERIS_TYPE":"0","SITE":"AFETR","ELEMENT_SET_NO":"999","CENTER_NAME":"EARTH","DECAY_DATE":null,"OBJECT_NAME":"STARLINK-1024","MEAN_ANOMALY":"201.5514","EPOCH":"2021-10-04T15:54:27.383616","COUNTRY_CODE":"US","BSTAR":"0.00026853000000","FILE":"3144803","MEAN_MOTION_DDOT":"0.0000000000000","OBJECT_TYPE":"PAYLOAD","REF_FRAME":"TEME","RA_OF_ASC_NODE":"263.0830","CLASSIFICATION_TYPE":"U","ARG_OF_PERICENTER":"158.5491","MEAN_MOTION":"15.07698021","PERIOD":"95.510","TLE_LINE2":"2 44729  52.9999 263.0830 0000384 158.5491 201.5514 15.07698021104766","NORAD_CAT_ID":"44729","MEAN_MOTION_DOT":"0.00003861","GP_ID":"186224493","REV_AT_EPOCH":"10476","MEAN_ELEMENT_THEORY":"SGP4","ECCENTRICITY":"0.00003840","LAUNCH_DATE":"2019-11-11","PERIAPSIS":"542.972","APOAPSIS":"543.504","TIME_SYSTEM":"UTC","SEMIMAJOR_AXIS":"6921.373","RCS_SIZE":"LARGE"},{"CENTER_NAME":"EARTH","ELEMENT_SET_NO":"999","OBJECT_ID":"2019-074U","INCLINATION":"53.0532","SITE":"AFETR","EPHEMERIS_TYPE":"0","TLE_LINE1":"1 44731U 19074U   21277.61335263 -.00000043  00000-0  15980-4 0  9993","BSTAR":"0.00001598000000","FILE":"3144803","COUNTRY_CODE":"US","EPOCH":"2021-10-04T14:43:13.667232","OBJECT_NAME":"STARLINK-1026","DECAY_DATE":null,"MEAN_ANOMALY":"293.1725","REV_AT_EPOCH":"10501","MEAN_ELEMENT_THEORY":"SGP4","NORAD_CAT_ID":"44731","PERIOD":"95.593","TLE_LINE2":"2 44731  53.0532 245.9663 0001359  66.9407 293.1725 15.06387956105010","GP_ID":"186224241","MEAN_MOTION_DOT":"-0.00000043","RA_OF_ASC_NODE":"245.9663","REF_FRAME":"TEME","MEAN_MOTION":"15.06387956","ARG_OF_PERICENTER":"66.9407","CLASSIFICATION_TYPE":"U","MEAN_MOTION_DDOT":"0.0000000000000","OBJECT_TYPE":"PAYLOAD","RCS_SIZE":"LARGE","SEMIMAJOR_AXIS":"6925.385","APOAPSIS":"548.192","TIME_SYSTEM":"UTC","LAUNCH_DATE":"2019-11-11","PERIAPSIS":"546.309","ECCENTRICITY":"0.00013590"},{"REV_AT_EPOCH":"10474","MEAN_ELEMENT_THEORY":"SGP4","NORAD_CAT_ID":"44732","TLE_LINE2":"2 44732  53.0533 265.7279 0001283  67.7204 292.3921 15.06395520104749","PERIOD":"95.592","GP_ID":"186222992","MEAN_MOTION_DOT":"-0.00000064","RA_OF_ASC_NODE":"265.7279","REF_FRAME":"TEME","ARG_OF_PERICENTER":"67.7204","MEAN_MOTION":"15.06395520","CLASSIFICATION_TYPE":"U","MEAN_MOTION_DDOT":"0.0000000000000","OBJECT_TYPE":"PAYLOAD","RCS_SIZE":"LARGE","SEMIMAJOR_AXIS":"6925.362","APOAPSIS":"548.116","TIME_SYSTEM":"UTC","PERIAPSIS":"546.339","LAUNCH_DATE":"2019-11-11","ECCENTRICITY":"0.00012830","CENTER_NAME":"EARTH","ELEMENT_SET_NO":"999","OBJECT_ID":"2019-074V","INCLINATION":"53.0533","SITE":"AFETR","EPHEMERIS_TYPE":"0","TLE_LINE1":"1 44732U 19074V   21277.66679256 -.00000064  00000-0  14586-4 0  9996","BSTAR":"0.00001458600000","FILE":"3144803","COUNTRY_CODE":"US","EPOCH":"2021-10-04T16:00:10.877184","DECAY_DATE":null,"OBJECT_NAME":"STARLINK-1027","MEAN_ANOMALY":"292.3921"},{"TLE_LINE2":"2 44733  53.0536 246.9198 0001339  73.3864 286.7272 15.06399972104988","PERIOD":"95.592","NORAD_CAT_ID":"44733","MEAN_MOTION_DOT":"0.00001330","GP_ID":"186191037","REV_AT_EPOCH":"10498","MEAN_ELEMENT_THEORY":"SGP4","MEAN_MOTION_DDOT":"0.0000000000000","OBJECT_TYPE":"PAYLOAD","REF_FRAME":"TEME","RA_OF_ASC_NODE":"246.9198","CLASSIFICATION_TYPE":"U","ARG_OF_PERICENTER":"73.3864","MEAN_MOTION":"15.06399972","SEMIMAJOR_AXIS":"6925.349","RCS_SIZE":"LARGE","PERIAPSIS":"546.286","LAUNCH_DATE":"2019-11-11","ECCENTRICITY":"0.00013390","APOAPSIS":"548.141","TIME_SYSTEM":"UTC","ELEMENT_SET_NO":"999","CENTER_NAME":"EARTH","TLE_LINE1":"1 44733U 19074W   21277.39955715  .00001330  00000-0  10815-3 0  9990","INCLINATION":"53.0536","OBJECT_ID":"2019-074W","EPHEMERIS_TYPE":"0","SITE":"AFETR","COUNTRY_CODE":"US","BSTAR":"0.00010815000000","FILE":"3144407","OBJECT_NAME":"STARLINK-1028","DECAY_DATE":null,"MEAN_ANOMALY":"286.7272","EPOCH":"2021-10-04T09:35:21.737760"},{"FILE":"3144407","BSTAR":"-0.00008150700000","COUNTRY_CODE":"US","EPOCH":"2021-10-04T09:29:15.514080","MEAN_ANOMALY":"284.7945","OBJECT_NAME":"STARLINK-1029","DECAY_DATE":null,"CENTER_NAME":"EARTH","ELEMENT_SET_NO":"999","EPHEMERIS_TYPE":"0","SITE":"AFETR","OBJECT_ID":"2019-074X","INCLINATION":"53.0002","TLE_LINE1":"1 44734U 19074X   21277.39531845 -.00001466  00000-0 -81507-4 0  9994","RCS_SIZE":"LARGE","SEMIMAJOR_AXIS":"6927.886","TIME_SYSTEM":"UTC","APOAPSIS":"550.836","ECCENTRICITY":"0.00015660","LAUNCH_DATE":"2019-11-11","PERIAPSIS":"548.666","REV_AT_EPOCH":"10608","MEAN_ELEMENT_THEORY":"SGP4","GP_ID":"186191787","MEAN_MOTION_DOT":"-0.00001466","NORAD_CAT_ID":"44734","TLE_LINE2":"2 44734  53.0002 166.9405 0001566  75.3216 284.7945 15.05572379106085","PERIOD":"95.645","ARG_OF_PERICENTER":"75.3216","MEAN_MOTION":"15.05572379","CLASSIFICATION_TYPE":"U","RA_OF_ASC_NODE":"166.9405","REF_FRAME":"TEME","OBJECT_TYPE":"PAYLOAD","MEAN_MOTION_DDOT":"0.0000000000000"},{"TIME_SYSTEM":"UTC","APOAPSIS":"547.948","LAUNCH_DATE":"2019-11-11","ECCENTRICITY":"0.00011280","PERIAPSIS":"546.386","RCS_SIZE":"LARGE","SEMIMAJOR_AXIS":"6925.302","CLASSIFICATION_TYPE":"U","ARG_OF_PERICENTER":"66.4692","MEAN_MOTION":"15.06415256","REF_FRAME":"TEME","RA_OF_ASC_NODE":"265.6930","OBJECT_TYPE":"PAYLOAD","MEAN_MOTION_DDOT":"0.0000000000000","MEAN_ELEMENT_THEORY":"SGP4","REV_AT_EPOCH":"10474","MEAN_MOTION_DOT":"0.00002632","GP_ID":"186224741","TLE_LINE2":"2 44735  53.0537 265.6930 0001128  66.4692 293.6416 15.06415256104746","PERIOD":"95.591","NORAD_CAT_ID":"44735","EPOCH":"2021-10-04T16:10:46.324128","MEAN_ANOMALY":"293.6416","OBJECT_NAME":"STARLINK-1030","DECAY_DATE":null,"FILE":"3144803","BSTAR":"0.00019547000000","COUNTRY_CODE":"US","EPHEMERIS_TYPE":"0","SITE":"AFETR","INCLINATION":"53.0537","OBJECT_ID":"2019-074Y","TLE_LINE1":"1 44735U 19074Y   21277.67414727  .00002632  00000-0  19547-3 0  9993","CENTER_NAME":"EARTH","ELEMENT_SET_NO":"999"},{"GP_ID":"186223492","MEAN_MOTION_DOT":"0.00000011","NORAD_CAT_ID":"44736","TLE_LINE2":"2 44736  53.0541 265.6251 0001516  73.1955 286.9200 15.06398093104752","PERIOD":"95.592","MEAN_ELEMENT_THEORY":"SGP4","REV_AT_EPOCH":"10475","OBJECT_TYPE":"PAYLOAD","MEAN_MOTION_DDOT":"0.0000000000000","ARG_OF_PERICENTER":"73.1955","MEAN_MOTION":"15.06398093","CLASSIFICATION_TYPE":"U","RA_OF_ASC_NODE":"265.6251","REF_FRAME":"TEME","SEMIMAJOR_AXIS":"6925.354","RCS_SIZE":"LARGE","LAUNCH_DATE":"2019-11-11","PERIAPSIS":"546.170","ECCENTRICITY":"0.00015160","TIME_SYSTEM":"UTC","APOAPSIS":"548.269","ELEMENT_SET_NO":"999","CENTER_NAME":"EARTH","TLE_LINE1":"1 44736U 19074Z   21277.68890545  .00000011  00000-0  19647-4 0  9992","SITE":"AFETR","EPHEMERIS_TYPE":"0","OBJECT_ID":"2019-074Z","INCLINATION":"53.0541","COUNTRY_CODE":"US","FILE":"3144803","BSTAR":"0.00001964700000","MEAN_ANOMALY":"286.9200","DECAY_DATE":null,"OBJECT_NAME":"STARLINK-1031","EPOCH":"2021-10-04T16:32:01.430880"},{"MEAN_ANOMALY":"289.6298","DECAY_DATE":null,"OBJECT_NAME":"STARLINK-1032","EPOCH":"2021-10-04T16:47:57.623136","COUNTRY_CODE":"US","FILE":"3144803","BSTAR":"0.00001484500000","TLE_LINE1":"1 44737U 19074AA  21277.69997249 -.00000060  00000-0  14845-4 0  9993","EPHEMERIS_TYPE":"0","SITE":"AFETR","OBJECT_ID":"2019-074AA","INCLINATION":"53.0539","ELEMENT_SET_NO":"999","CENTER_NAME":"EARTH","PERIAPSIS":"546.377","LAUNCH_DATE":"2019-11-11","ECCENTRICITY":"0.00012580","TIME_SYSTEM":"UTC","APOAPSIS":"548.120","SEMIMAJOR_AXIS":"6925.384","RCS_SIZE":"LARGE","OBJECT_TYPE":"PAYLOAD","MEAN_MOTION_DDOT":"0.0000000000000","ARG_OF_PERICENTER":"70.4826","MEAN_MOTION":"15.06388537","CLASSIFICATION_TYPE":"U","RA_OF_ASC_NODE":"265.5782","REF_FRAME":"TEME","GP_ID":"186223243","MEAN_MOTION_DOT":"-0.00000060","NORAD_CAT_ID":"44737","TLE_LINE2":"2 44737  53.0539 265.5782 0001258  70.4826 289.6298 15.06388537104757","PERIOD":"95.593","REV_AT_EPOCH":"10475","MEAN_ELEMENT_THEORY":"SGP4"},{"NORAD_CAT_ID":"44738","TLE_LINE2":"2 44738  53.0535 265.6315 0001150  60.1560 299.9543 15.06390432104742","PERIOD":"95.593","GP_ID":"186224494","MEAN_MOTION_DOT":"-0.00000285","REV_AT_EPOCH":"10474","MEAN_ELEMENT_THEORY":"SGP4","MEAN_MOTION_DDOT":"0.0000000000000","OBJECT_TYPE":"PAYLOAD","RA_OF_ASC_NODE":"265.6315","REF_FRAME":"TEME","ARG_OF_PERICENTER":"60.1560","MEAN_MOTION":"15.06390432","CLASSIFICATION_TYPE":"U","SEMIMAJOR_AXIS":"6925.378","RCS_SIZE":"LARGE","PERIAPSIS":"546.446","LAUNCH_DATE":"2019-11-11","ECCENTRICITY":"0.00011500","APOAPSIS":"548.039","TIME_SYSTEM":"UTC","ELEMENT_SET_NO":"999","CENTER_NAME":"EARTH","TLE_LINE1":"1 44738U 19074AB  21277.68522893 -.00000285  00000-0 -26338-6 0  9994","OBJECT_ID":"2019-074AB","INCLINATION":"53.0535","EPHEMERIS_TYPE":"0","SITE":"AFETR","COUNTRY_CODE":"US","BSTAR":"-0.00000026338000","FILE":"3144803","OBJECT_NAME":"STARLINK-1033","DECAY_DATE":null,"MEAN_ANOMALY":"299.9543","EPOCH":"2021-10-04T16:26:43.779552"}];
